[Satellite]
VERSION=1.1
NAME=FORMOSAT-3 FM4
NICKNAME=FORMOSAT-3 FM4
TLE1=1 29051U 06011E   18020.73010259  .00000066  00000-0  41694-4 0  9993
TLE2=2 29051  72.0060  85.5776 0068333   2.4578 357.6880 14.28646176616680
